{
  "type": "FeatureCollection",
  "features": [
    {
      "type": "Feature",
      "properties": {
        "norad_id": 40236,
        "name": "COSMOS 2251 DEB",
        "group": "cosmos-2251-debris",
        "lat": -59.95008409911613,
        "lon": 117.92964660961228,
        "alt_km": 1178.1250252606587,
        "timestamp": "2025-12-09T14:52:26.560874+00:00",
        "meta_object_name": "COSMOS 2251 DEB",
        "meta_object_id": "1993-036BVR",
        "meta_epoch": "2025-12-07T17:52:23.026080",
        "meta_mean_motion": 13.24639967,
        "meta_eccentricity": 0.05366128,
        "meta_inclination": 73.5349,
        "meta_ra_of_asc_node": 151.6266,
        "meta_arg_of_pericenter": 32.3576,
        "meta_mean_anomaly": 330.9258,
        "meta_ephemeris_type": 0,
        "meta_classification_type": "U",
        "meta_norad_cat_id": 40236,
        "meta_element_set_no": 999,
        "meta_rev_at_epoch": 53558,
        "meta_bstar": 0.0015786255,
        "meta_mean_motion_dot": 1.455e-05,
        "meta_mean_motion_ddot": 0,
        "tle_line1": "1 40236U 93036BVR 25341.74471095  .00001455  00000+0  15786-2 0  9991",
        "tle_line2": "2 40236  73.5349 151.6266 0536612  32.3576 330.9258 13.24639967535580"
      },
      "geometry": {
        "type": "Point",
        "coordinates": [
          117.92964660961228,
          -59.95008409911613
        ]
      }
    },
    {
      "type": "Feature",
      "properties": {
        "norad_id": 40238,
        "name": "COSMOS 2251 DEB",
        "group": "cosmos-2251-debris",
        "lat": 29.532938371646992,
        "lon": 77.75359633696712,
        "alt_km": 754.3079506647655,
        "timestamp": "2025-12-09T14:52:26.560884+00:00",
        "meta_object_name": "COSMOS 2251 DEB",
        "meta_object_id": "1993-036BVT",
        "meta_epoch": "2025-12-04T13:20:38.533056",
        "meta_mean_motion": 13.25091202,
        "meta_eccentricity": 0.0549745,
        "meta_inclination": 73.9885,
        "meta_ra_of_asc_node": 76.1652,
        "meta_arg_of_pericenter": 49.7266,
        "meta_mean_anomaly": 315.0566,
        "meta_ephemeris_type": 0,
        "meta_classification_type": "U",
        "meta_norad_cat_id": 40238,
        "meta_element_set_no": 999,
        "meta_rev_at_epoch": 53928,
        "meta_bstar": 0.0023519,
        "meta_mean_motion_dot": 2.29e-05,
        "meta_mean_motion_ddot": 0,
        "tle_line1": "1 40238U 93036BVT 25338.55600154  .00002290  00000+0  23519-2 0  9999",
        "tle_line2": "2 40238  73.9885  76.1652 0549745  49.7266 315.0566 13.25091202539282"
      },
      "geometry": {
        "type": "Point",
        "coordinates": [
          77.75359633696712,
          29.532938371646992
        ]
      }
    },
    {
      "type": "Feature",
      "properties": {
        "norad_id": 40239,
        "name": "COSMOS 2251 DEB",
        "group": "cosmos-2251-debris",
        "lat": 68.17222181720912,
        "lon": 56.177742834905025,
        "alt_km": 659.9660823746617,
        "timestamp": "2025-12-09T14:52:26.560894+00:00",
        "meta_object_name": "COSMOS 2251 DEB",
        "meta_object_id": "1993-036BVU",
        "meta_epoch": "2025-12-09T02:58:33.046176",
        "meta_mean_motion": 14.61966821,
        "meta_eccentricity": 0.00846673,
        "meta_inclination": 74.0321,
        "meta_ra_of_asc_node": 282.759,
        "meta_arg_of_pericenter": 35.0564,
        "meta_mean_anomaly": 340.9261,
        "meta_ephemeris_type": 0,
        "meta_classification_type": "U",
        "meta_norad_cat_id": 40239,
        "meta_element_set_no": 999,
        "meta_rev_at_epoch": 59558,
        "meta_bstar": 0.00063514964,
        "meta_mean_motion_dot": 3.319e-05,
        "meta_mean_motion_ddot": 0,
        "tle_line1": "1 40239U 93036BVU 25343.12399359  .00003319  00000+0  63515-3 0  9995",
        "tle_line2": "2 40239  74.0321 282.7590 0084667  35.0564 340.9261 14.61966821595585"
      },
      "geometry": {
        "type": "Point",
        "coordinates": [
          56.177742834905025,
          68.17222181720912
        ]
      }
    },
    {
      "type": "Feature",
      "properties": {
        "norad_id": 40792,
        "name": "COSMOS 2251 DEB",
        "group": "cosmos-2251-debris",
        "lat": -24.780899656903173,
        "lon": -118.92904140490836,
        "alt_km": 666.4806348990232,
        "timestamp": "2025-12-09T14:52:26.560904+00:00",
        "meta_object_name": "COSMOS 2251 DEB",
        "meta_object_id": "1993-036BVV",
        "meta_epoch": "2025-12-08T11:49:11.388288",
        "meta_mean_motion": 14.67495133,
        "meta_eccentricity": 0.00157828,
        "meta_inclination": 74.0463,
        "meta_ra_of_asc_node": 55.6567,
        "meta_arg_of_pericenter": 162.447,
        "meta_mean_anomaly": 210.2984,
        "meta_ephemeris_type": 0,
        "meta_classification_type": "U",
        "meta_norad_cat_id": 40792,
        "meta_element_set_no": 999,
        "meta_rev_at_epoch": 63122,
        "meta_bstar": 0.0015277322,
        "meta_mean_motion_dot": 8.654e-05,
        "meta_mean_motion_ddot": 0,
        "tle_line1": "1 40792U 93036BVV 25342.49249292  .00008654  00000+0  15277-2 0  9996",
        "tle_line2": "2 40792  74.0463  55.6567 0015782 162.4470 210.2984 14.67495133631222"
      },
      "geometry": {
        "type": "Point",
        "coordinates": [
          -118.92904140490836,
          -24.780899656903173
        ]
      }
    },
    {
      "type": "Feature",
      "properties": {
        "norad_id": 40793,
        "name": "COSMOS 2251 DEB",
        "group": "cosmos-2251-debris",
        "lat": 41.73988388126209,
        "lon": -24.25537100573549,
        "alt_km": 1022.9615136329776,
        "timestamp": "2025-12-09T14:52:26.560915+00:00",
        "meta_object_name": "COSMOS 2251 DEB",
        "meta_object_id": "1993-036BVW",
        "meta_epoch": "2025-11-17T22:59:08.433600",
        "meta_mean_motion": 14.0559149,
        "meta_eccentricity": 0.02150611,
        "meta_inclination": 73.9793,
        "meta_ra_of_asc_node": 208.5839,
        "meta_arg_of_pericenter": 10.058,
        "meta_mean_anomaly": 350.4754,
        "meta_ephemeris_type": 0,
        "meta_classification_type": "U",
        "meta_norad_cat_id": 40793,
        "meta_element_set_no": 999,
        "meta_rev_at_epoch": 67897,
        "meta_bstar": 0.0015211732,
        "meta_mean_motion_dot": 3.024e-05,
        "meta_mean_motion_ddot": 0,
        "tle_line1": "1 40793U 93036BVW 25321.95773650  .00003024  00000+0  15212-2 0  9990",
        "tle_line2": "2 40793  73.9793 208.5839 0215061  10.0580 350.4754 14.05591490678970"
      },
      "geometry": {
        "type": "Point",
        "coordinates": [
          -24.25537100573549,
          41.73988388126209
        ]
      }
    },
    {
      "type": "Feature",
      "properties": {
        "norad_id": 40794,
        "name": "COSMOS 2251 DEB",
        "group": "cosmos-2251-debris",
        "lat": -43.213246311137766,
        "lon": 114.87743003670882,
        "alt_km": 595.2818485626367,
        "timestamp": "2025-12-09T14:52:26.560925+00:00",
        "meta_object_name": "COSMOS 2251 DEB",
        "meta_object_id": "1993-036BVX",
        "meta_epoch": "2025-11-30T04:39:36.279360",
        "meta_mean_motion": 14.91253423,
        "meta_eccentricity": 0.00103638,
        "meta_inclination": 73.9758,
        "meta_ra_of_asc_node": 149.5129,
        "meta_arg_of_pericenter": 264.0956,
        "meta_mean_anomaly": 215.1976,
        "meta_ephemeris_type": 0,
        "meta_classification_type": "U",
        "meta_norad_cat_id": 40794,
        "meta_element_set_no": 999,
        "meta_rev_at_epoch": 61737,
        "meta_bstar": 0.0047311798,
        "meta_mean_motion_dot": 0.00047418,
        "meta_mean_motion_ddot": 0,
        "tle_line1": "1 40794U 93036BVX 25334.19416990  .00047418  00000+0  47312-2 0  9993",
        "tle_line2": "2 40794  73.9758 149.5129 0010363 264.0956 215.1976 14.91253423617370"
      },
      "geometry": {
        "type": "Point",
        "coordinates": [
          114.87743003670882,
          -43.213246311137766
        ]
      }
    },
    {
      "type": "Feature",
      "properties": {
        "norad_id": 40796,
        "name": "COSMOS 2251 DEB",
        "group": "cosmos-2251-debris",
        "lat": 51.87054191540377,
        "lon": -53.06412624168403,
        "alt_km": 656.0304249833252,
        "timestamp": "2025-12-09T14:52:26.560935+00:00",
        "meta_object_name": "COSMOS 2251 DEB",
        "meta_object_id": "1993-036BVZ",
        "meta_epoch": "2025-12-08T20:47:45.281184",
        "meta_mean_motion": 14.81614728,
        "meta_eccentricity": 0.00561381,
        "meta_inclination": 74.0118,
        "meta_ra_of_asc_node": 149.8495,
        "meta_arg_of_pericenter": 287.1313,
        "meta_mean_anomaly": 142.0416,
        "meta_ephemeris_type": 0,
        "meta_classification_type": "U",
        "meta_norad_cat_id": 40796,
        "meta_element_set_no": 999,
        "meta_rev_at_epoch": 76101,
        "meta_bstar": 0.0013835929,
        "meta_mean_motion_dot": 0.00011161,
        "meta_mean_motion_ddot": 0,
        "tle_line1": "1 40796U 93036BVZ 25342.86649631  .00011161  00000+0  13836-2 0  9998",
        "tle_line2": "2 40796  74.0118 149.8495 0056138 287.1313 142.0416 14.81614728761012"
      },
      "geometry": {
        "type": "Point",
        "coordinates": [
          -53.06412624168403,
          51.87054191540377
        ]
      }
    }
  ]
}